[
    {
        "Altitude(m)": 605470.7436923048,
        "Argument of Periapsis(deg)": 0.0,
        "Eccentricity": 0.0,
        "Inclination(deg)": 60.0,
        "Latitude(deg)": 27.988055795135093,
        "Longitude(deg)": -37.73709893221484,
        "Mean Anomaly(deg)": -212.7273,
        "RAAN(deg)": 260.0,
        "Satellite Name": "Test1 1153",
        "Satellite Number": 1153,
        "Semi-Major Axis(m)": 6980739.136638005,
        "Time(s)": 0
    },
    {
        "Altitude(m)": 605395.7823101754,
        "Argument of Periapsis(deg)": 0.00010418945913296404,
        "Eccentricity": 0.0,
        "Inclination(deg)": 60.0,
        "Latitude(deg)": 27.473747019418884,
        "Longitude(deg)": -37.38391063914209,
        "Mean Anomaly(deg)": -212.1071938545382,
        "RAAN(deg)": 259.99957995086027,
        "Satellite Name": "Test1 1153",
        "Satellite Number": 1153,
        "Semi-Major Axis(m)": 6980739.136638005,
        "Time(s)": 10
    }
]